[
    {
        "Altitude(m)": 624790.771300993,
        "Argument of Periapsis(deg)": 0.0,
        "Eccentricity": 0.0,
        "Inclination(deg)": 60.0,
        "Latitude(deg)": -59.147043555624926,
        "Longitude(deg)": 76.03468055971196,
        "Mean Anomaly(deg)": -81.8182,
        "RAAN(deg)": 250.00000000000003,
        "Satellite Name": "Test1 1117",
        "Satellite Number": 1117,
        "Semi-Major Axis(m)": 6980739.136638005,
        "Time(s)": 0
    },
    {
        "Altitude(m)": 624737.4260184526,
        "Argument of Periapsis(deg)": 0.00010418945913296404,
        "Eccentricity": 0.0,
        "Inclination(deg)": 60.0,
        "Latitude(deg)": -58.99449783774716,
        "Longitude(deg)": 77.15417979761904,
        "Mean Anomaly(deg)": -81.19809385453816,
        "RAAN(deg)": 249.99957995086027,
        "Satellite Name": "Test1 1117",
        "Satellite Number": 1117,
        "Semi-Major Axis(m)": 6980739.136638005,
        "Time(s)": 10
    }
]